SOYUZ-MS 28             
1 66664U 25275A   25361.88879672  .00015012  00000+0  27157-3 0  9994
2 66664  51.6320  67.4500 0003237 312.1119  47.9595 15.49886938545208
1998-067XS              
1 66906U 98067XS  25361.48455583  .00028453  00000+0  48079-3 0  9998
2 66906  51.6319  69.2523 0002659 278.8538  81.2150 15.51372826  3903
1998-067XT              
1 66907U 98067XT  25361.91894816  .00078499  00000+0  12132-2 0  9998
2 66907  51.6317  66.9028 0003883 320.2440  39.8265 15.53389909  3975
1998-067XU              
1 66908U 98067XU  25361.91777036  .00067801  00000+0  10494-2 0  9997
2 66908  51.6317  66.8944 0004039 316.9902  43.0773 15.53412367  3977
SILVERSAT               
1 66909U 98067XV  25361.46540558  .00076025  00000+0  11635-2 0  9991
2 66909  51.6313  69.1235 0003945 319.4612  40.6084 15.53674289  3908
1998-067XW              
1 66910U 98067XW  25361.91416426  .00079310  00000+0  12148-2 0  9999
2 66910  51.6305  66.8697 0003671 293.1612  66.8991 15.53633108  3970
1998-067XX              
1 66911U 98067XX  25361.39493673  .00082680  00000+0  12426-2 0  9994
2 66911  51.6308  69.4034 0003462 299.6786  60.3859 15.54137727  3888
1998-067XY              
1 66912U 98067XY  25362.18236602  .00061829  00000+0  98355-3 0  9998
2 66912  51.6316  65.6619 0003860 311.4501  48.6157 15.52694180  4009
