CCSDS_OMM_VERS = 2.0
CREATION_DATE  = 
ORIGINATOR     = 

OBJECT_NAME    = SOYUZ-MS 28
OBJECT_ID      = 2025-275A
CENTER_NAME    = EARTH
REF_FRAME      = TEME
TIME_SYSTEM    = UTC
MEAN_ELEMENT_THEORY = SGP/SGP4

EPOCH          = 2025-12-27T21:19:52.036608
MEAN_MOTION    = 15.49886938
ECCENTRICITY   = .0003237
INCLINATION    = 51.6320
RA_OF_ASC_NODE = 67.4500
ARG_OF_PERICENTER = 312.1119
MEAN_ANOMALY   = 47.9595

EPHEMERIS_TYPE = 0
CLASSIFICATION_TYPE = U
NORAD_CAT_ID   = 66664
ELEMENT_SET_NO = 999
REV_AT_EPOCH   = 54520
BSTAR          = .27157E-3
MEAN_MOTION_DOT = .15012E-3
MEAN_MOTION_DDOT = 0

CCSDS_OMM_VERS = 2.0
CREATION_DATE  = 
ORIGINATOR     = 

OBJECT_NAME    = 1998-067XS
OBJECT_ID      = 1998-067XS
CENTER_NAME    = EARTH
REF_FRAME      = TEME
TIME_SYSTEM    = UTC
MEAN_ELEMENT_THEORY = SGP/SGP4

EPOCH          = 2025-12-27T11:37:45.623712
MEAN_MOTION    = 15.51372826
ECCENTRICITY   = .00026592
INCLINATION    = 51.6319
RA_OF_ASC_NODE = 69.2523
ARG_OF_PERICENTER = 278.8538
MEAN_ANOMALY   = 81.2150

EPHEMERIS_TYPE = 0
CLASSIFICATION_TYPE = U
NORAD_CAT_ID   = 66906
ELEMENT_SET_NO = 999
REV_AT_EPOCH   = 390
BSTAR          = .48079028E-3
MEAN_MOTION_DOT = .28453E-3
MEAN_MOTION_DDOT = 0

CCSDS_OMM_VERS = 2.0
CREATION_DATE  = 
ORIGINATOR     = 

OBJECT_NAME    = 1998-067XT
OBJECT_ID      = 1998-067XT
CENTER_NAME    = EARTH
REF_FRAME      = TEME
TIME_SYSTEM    = UTC
MEAN_ELEMENT_THEORY = SGP/SGP4

EPOCH          = 2025-12-27T22:03:17.121024
MEAN_MOTION    = 15.53389909
ECCENTRICITY   = .0003883
INCLINATION    = 51.6317
RA_OF_ASC_NODE = 66.9028
ARG_OF_PERICENTER = 320.2440
MEAN_ANOMALY   = 39.8265

EPHEMERIS_TYPE = 0
CLASSIFICATION_TYPE = U
NORAD_CAT_ID   = 66907
ELEMENT_SET_NO = 999
REV_AT_EPOCH   = 397
BSTAR          = .12132E-2
MEAN_MOTION_DOT = .78499E-3
MEAN_MOTION_DDOT = 0

CCSDS_OMM_VERS = 2.0
CREATION_DATE  = 
ORIGINATOR     = 

OBJECT_NAME    = 1998-067XU
OBJECT_ID      = 1998-067XU
CENTER_NAME    = EARTH
REF_FRAME      = TEME
TIME_SYSTEM    = UTC
MEAN_ELEMENT_THEORY = SGP/SGP4

EPOCH          = 2025-12-27T22:01:35.359104
MEAN_MOTION    = 15.53412367
ECCENTRICITY   = .0004039
INCLINATION    = 51.6317
RA_OF_ASC_NODE = 66.8944
ARG_OF_PERICENTER = 316.9902
MEAN_ANOMALY   = 43.0773

EPHEMERIS_TYPE = 0
CLASSIFICATION_TYPE = U
NORAD_CAT_ID   = 66908
ELEMENT_SET_NO = 999
REV_AT_EPOCH   = 397
BSTAR          = .10494E-2
MEAN_MOTION_DOT = .67801E-3
MEAN_MOTION_DDOT = 0

CCSDS_OMM_VERS = 2.0
CREATION_DATE  = 
ORIGINATOR     = 

OBJECT_NAME    = SILVERSAT
OBJECT_ID      = 1998-067XV
CENTER_NAME    = EARTH
REF_FRAME      = TEME
TIME_SYSTEM    = UTC
MEAN_ELEMENT_THEORY = SGP/SGP4

EPOCH          = 2025-12-27T11:10:11.042112
MEAN_MOTION    = 15.53674289
ECCENTRICITY   = .00039453
INCLINATION    = 51.6313
RA_OF_ASC_NODE = 69.1235
ARG_OF_PERICENTER = 319.4612
MEAN_ANOMALY   = 40.6084

EPHEMERIS_TYPE = 0
CLASSIFICATION_TYPE = U
NORAD_CAT_ID   = 66909
ELEMENT_SET_NO = 999
REV_AT_EPOCH   = 390
BSTAR          = .11635231E-2
MEAN_MOTION_DOT = .76025E-3
MEAN_MOTION_DDOT = 0

CCSDS_OMM_VERS = 2.0
CREATION_DATE  = 
ORIGINATOR     = 

OBJECT_NAME    = 1998-067XW
OBJECT_ID      = 1998-067XW
CENTER_NAME    = EARTH
REF_FRAME      = TEME
TIME_SYSTEM    = UTC
MEAN_ELEMENT_THEORY = SGP/SGP4

EPOCH          = 2025-12-27T21:56:23.792064
MEAN_MOTION    = 15.53633108
ECCENTRICITY   = .0003671
INCLINATION    = 51.6305
RA_OF_ASC_NODE = 66.8697
ARG_OF_PERICENTER = 293.1612
MEAN_ANOMALY   = 66.8991

EPHEMERIS_TYPE = 0
CLASSIFICATION_TYPE = U
NORAD_CAT_ID   = 66910
ELEMENT_SET_NO = 999
REV_AT_EPOCH   = 397
BSTAR          = .12148E-2
MEAN_MOTION_DOT = .7931E-3
MEAN_MOTION_DDOT = 0

CCSDS_OMM_VERS = 2.0
CREATION_DATE  = 
ORIGINATOR     = 

OBJECT_NAME    = 1998-067XX
OBJECT_ID      = 1998-067XX
CENTER_NAME    = EARTH
REF_FRAME      = TEME
TIME_SYSTEM    = UTC
MEAN_ELEMENT_THEORY = SGP/SGP4

EPOCH          = 2025-12-27T09:28:42.533472
MEAN_MOTION    = 15.54137727
ECCENTRICITY   = .00034622
INCLINATION    = 51.6308
RA_OF_ASC_NODE = 69.4034
ARG_OF_PERICENTER = 299.6786
MEAN_ANOMALY   = 60.3859

EPHEMERIS_TYPE = 0
CLASSIFICATION_TYPE = U
NORAD_CAT_ID   = 66911
ELEMENT_SET_NO = 999
REV_AT_EPOCH   = 388
BSTAR          = .12426362E-2
MEAN_MOTION_DOT = .8268E-3
MEAN_MOTION_DDOT = 0

CCSDS_OMM_VERS = 2.0
CREATION_DATE  = 
ORIGINATOR     = 

OBJECT_NAME    = 1998-067XY
OBJECT_ID      = 1998-067XY
CENTER_NAME    = EARTH
REF_FRAME      = TEME
TIME_SYSTEM    = UTC
MEAN_ELEMENT_THEORY = SGP/SGP4

EPOCH          = 2025-12-28T04:22:36.424128
MEAN_MOTION    = 15.52694180
ECCENTRICITY   = .000386
INCLINATION    = 51.6316
RA_OF_ASC_NODE = 65.6619
ARG_OF_PERICENTER = 311.4501
MEAN_ANOMALY   = 48.6157

EPHEMERIS_TYPE = 0
CLASSIFICATION_TYPE = U
NORAD_CAT_ID   = 66912
ELEMENT_SET_NO = 999
REV_AT_EPOCH   = 400
BSTAR          = .98355E-3
MEAN_MOTION_DOT = .61829E-3
MEAN_MOTION_DDOT = 0

